start=new Date('2022-05-12T00:00:00.000Z').valueOf();
sats=[{"MEAN_ELEMENT_THEORY":"SGP4","PERIAPSIS":"546.099","RA_OF_ASC_NODE":"53.3471","REV_AT_EPOCH":"8617","RCS_SIZE":"LARGE","CLASSIFICATION_TYPE":"U","NORAD_CAT_ID":"46709","MEAN_MOTION":"15.06392265","MEAN_ANOMALY":"302.7513","TIME_SYSTEM":"UTC","MEAN_MOTION_DDOT":"0.0000000000000","REF_FRAME":"TEME","ECCENTRICITY":"0.00016440","EPHEMERIS_TYPE":"0","DECAY_DATE":null,"CENTER_NAME":"EARTH","TLE_LINE2":"2 46709  53.0557  53.3471 0001644  57.3635 302.7513 15.06392265 86172","OBJECT_ID":"2020-073AR","MEAN_MOTION_DOT":"0.00000737","PERIOD":"95.593","OBJECT_TYPE":"PAYLOAD","OBJECT_NAME":"STARLINK-1810","APOAPSIS":"548.376","GP_ID":"203275547","SITE":"AFETR","TLE_LINE1":"1 46709U 20073AR  22131.49914659  .00000737  00000-0  68363-4 0  9991","INCLINATION":"53.0557","ELEMENT_SET_NO":"999","LAUNCH_DATE":"2020-10-18","FILE":"3440740","COUNTRY_CODE":"US","SEMIMAJOR_AXIS":"6925.372","BSTAR":"0.00006836300000","ARG_OF_PERICENTER":"57.3635","EPOCH":"2022-05-11T11:58:46.265376"},{"DECAY_DATE":null,"EPHEMERIS_TYPE":"0","ECCENTRICITY":"0.00017570","REF_FRAME":"TEME","MEAN_MOTION_DDOT":"0.0000000000000","TIME_SYSTEM":"UTC","MEAN_MOTION":"15.06397706","MEAN_ANOMALY":"301.1213","NORAD_CAT_ID":"46710","CLASSIFICATION_TYPE":"U","RCS_SIZE":"LARGE","REV_AT_EPOCH":"8622","RA_OF_ASC_NODE":"52.0046","MEAN_ELEMENT_THEORY":"SGP4","PERIAPSIS":"546.004","EPOCH":"2022-05-11T19:04:44.331456","ARG_OF_PERICENTER":"58.9948","BSTAR":"0.00000202800000","SEMIMAJOR_AXIS":"6925.356","COUNTRY_CODE":"US","FILE":"3441154","LAUNCH_DATE":"2020-10-18","ELEMENT_SET_NO":"999","TLE_LINE1":"1 46710U 20073AS  22131.79495754 -.00000251  00000-0  20280-5 0  9995","INCLINATION":"53.0579","SITE":"AFETR","GP_ID":"203309329","APOAPSIS":"548.437","OBJECT_NAME":"STARLINK-1811","OBJECT_TYPE":"PAYLOAD","PERIOD":"95.592","MEAN_MOTION_DOT":"-0.00000251","TLE_LINE2":"2 46710  53.0579  52.0046 0001757  58.9948 301.1213 15.06397706 86222","OBJECT_ID":"2020-073AS","CENTER_NAME":"EARTH"},{"REV_AT_EPOCH":"8642","RCS_SIZE":"LARGE","RA_OF_ASC_NODE":"37.4352","PERIAPSIS":"546.012","MEAN_ELEMENT_THEORY":"SGP4","CLASSIFICATION_TYPE":"U","NORAD_CAT_ID":"46711","MEAN_MOTION":"15.06382977","MEAN_ANOMALY":"311.4005","MEAN_MOTION_DDOT":"0.0000000000000","TIME_SYSTEM":"UTC","EPHEMERIS_TYPE":"0","DECAY_DATE":null,"ECCENTRICITY":"0.00018100","REF_FRAME":"TEME","OBJECT_TYPE":"PAYLOAD","PERIOD":"95.593","TLE_LINE2":"2 46711  53.0559  37.4352 0001810  48.7139 311.4005 15.06382977 86426","CENTER_NAME":"EARTH","OBJECT_ID":"2020-073AT","MEAN_MOTION_DOT":"-0.00001401","GP_ID":"203310074","APOAPSIS":"548.519","OBJECT_NAME":"STARLINK-1813","ELEMENT_SET_NO":"999","TLE_LINE1":"1 46711U 20073AT  22131.70236390 -.00001401  00000-0 -75177-4 0  9999","INCLINATION":"53.0559","SITE":"AFETR","BSTAR":"-0.00007517700000","ARG_OF_PERICENTER":"48.7139","EPOCH":"2022-05-11T16:51:24.240960","COUNTRY_CODE":"US","SEMIMAJOR_AXIS":"6925.401","FILE":"3441154","LAUNCH_DATE":"2020-10-18"},{"MEAN_ANOMALY":"302.9076","MEAN_MOTION":"15.06339685","NORAD_CAT_ID":"46712","CLASSIFICATION_TYPE":"U","MEAN_ELEMENT_THEORY":"SGP4","PERIAPSIS":"545.762","RCS_SIZE":"LARGE","REV_AT_EPOCH":"8638","RA_OF_ASC_NODE":"38.4694","ECCENTRICITY":"0.00023630","REF_FRAME":"TEME","DECAY_DATE":null,"EPHEMERIS_TYPE":"0","MEAN_MOTION_DDOT":"0.0000000000000","TIME_SYSTEM":"UTC","OBJECT_NAME":"STARLINK-1814","GP_ID":"203275294","APOAPSIS":"549.035","MEAN_MOTION_DOT":"-0.00006606","CENTER_NAME":"EARTH","TLE_LINE2":"2 46712  53.0550  38.4694 0002363  57.2140 302.9076 15.06339685 86385","OBJECT_ID":"2020-073AU","OBJECT_TYPE":"PAYLOAD","PERIOD":"95.596","SEMIMAJOR_AXIS":"6925.533","COUNTRY_CODE":"US","FILE":"3440740","LAUNCH_DATE":"2020-10-18","ARG_OF_PERICENTER":"57.2140","EPOCH":"2022-05-11T11:15:43.401312","BSTAR":"-0.00042565000000","TLE_LINE1":"1 46712U 20073AU  22131.46925233 -.00006606  00000-0 -42565-3 0  9990","INCLINATION":"53.0550","SITE":"AFETR","ELEMENT_SET_NO":"999"},{"TLE_LINE1":"1 46713U 20073AV  22131.14946526 -.00000720  00000-0 -29453-4 0  9997","INCLINATION":"53.0552","SITE":"AFETR","ELEMENT_SET_NO":"999","SEMIMAJOR_AXIS":"6925.365","COUNTRY_CODE":"US","FILE":"3440740","LAUNCH_DATE":"2020-10-18","EPOCH":"2022-05-11T03:35:13.798464","ARG_OF_PERICENTER":"55.2866","BSTAR":"-0.00002945300000","MEAN_MOTION_DOT":"-0.00000720","OBJECT_ID":"2020-073AV","TLE_LINE2":"2 46713  53.0552  39.9024 0001725  55.2866 304.8285 15.06394579 86336","CENTER_NAME":"EARTH","OBJECT_TYPE":"PAYLOAD","PERIOD":"95.592","OBJECT_NAME":"STARLINK-1815","GP_ID":"203275049","APOAPSIS":"548.425","MEAN_MOTION_DDOT":"0.0000000000000","TIME_SYSTEM":"UTC","ECCENTRICITY":"0.00017250","REF_FRAME":"TEME","DECAY_DATE":null,"EPHEMERIS_TYPE":"0","PERIAPSIS":"546.036","MEAN_ELEMENT_THEORY":"SGP4","RCS_SIZE":"LARGE","REV_AT_EPOCH":"8633","RA_OF_ASC_NODE":"39.9024","MEAN_ANOMALY":"304.8285","MEAN_MOTION":"15.06394579","NORAD_CAT_ID":"46713","CLASSIFICATION_TYPE":"U"},{"PERIOD":"95.593","OBJECT_TYPE":"PAYLOAD","MEAN_MOTION_DOT":"0.00000122","CENTER_NAME":"EARTH","TLE_LINE2":"2 46714  53.0558  38.4738 0001753  61.7811 298.3354 15.06391812 86388","OBJECT_ID":"2020-073AW","APOAPSIS":"548.453","GP_ID":"203276295","OBJECT_NAME":"STARLINK-1816","ELEMENT_SET_NO":"999","SITE":"AFETR","INCLINATION":"53.0558","TLE_LINE1":"1 46714U 20073AW  22131.47013999  .00000122  00000-0  27097-4 0  9999","EPOCH":"2022-05-11T11:17:00.095136","ARG_OF_PERICENTER":"61.7811","BSTAR":"0.00002709700000","LAUNCH_DATE":"2020-10-18","FILE":"3440740","SEMIMAJOR_AXIS":"6925.374","COUNTRY_CODE":"US","RA_OF_ASC_NODE":"38.4738","RCS_SIZE":"LARGE","REV_AT_EPOCH":"8638","MEAN_ELEMENT_THEORY":"SGP4","PERIAPSIS":"546.025","MEAN_MOTION":"15.06391812","MEAN_ANOMALY":"298.3354","CLASSIFICATION_TYPE":"U","NORAD_CAT_ID":"46714","TIME_SYSTEM":"UTC","MEAN_MOTION_DDOT":"0.0000000000000","DECAY_DATE":null,"EPHEMERIS_TYPE":"0","REF_FRAME":"TEME","ECCENTRICITY":"0.00017530"},{"MEAN_ELEMENT_THEORY":"SGP4","PERIAPSIS":"545.953","RCS_SIZE":"LARGE","REV_AT_EPOCH":"8642","RA_OF_ASC_NODE":"37.3048","MEAN_MOTION":"15.06395739","MEAN_ANOMALY":"313.3851","CLASSIFICATION_TYPE":"U","NORAD_CAT_ID":"46715","MEAN_MOTION_DDOT":"0.0000000000000","TIME_SYSTEM":"UTC","ECCENTRICITY":"0.00018390","REF_FRAME":"TEME","DECAY_DATE":null,"EPHEMERIS_TYPE":"0","MEAN_MOTION_DOT":"-0.00000443","OBJECT_ID":"2020-073AX","TLE_LINE2":"2 46715  53.0571  37.3048 0001839  46.7291 313.3851 15.06395739 86423","CENTER_NAME":"EARTH","OBJECT_TYPE":"PAYLOAD","PERIOD":"95.592","OBJECT_NAME":"STARLINK-1817","GP_ID":"203309574","APOAPSIS":"548.500","INCLINATION":"53.0571","TLE_LINE1":"1 46715U 20073AX  22131.73184215 -.00000443  00000-0 -10848-4 0  9993","SITE":"AFETR","ELEMENT_SET_NO":"999","SEMIMAJOR_AXIS":"6925.362","COUNTRY_CODE":"US","FILE":"3441154","LAUNCH_DATE":"2020-10-18","ARG_OF_PERICENTER":"46.7291","EPOCH":"2022-05-11T17:33:51.161760","BSTAR":"-0.00001084800000"},{"ELEMENT_SET_NO":"999","TLE_LINE1":"1 46716U 20073AY  22131.81338683  .00001112  00000-0  93575-4 0  9993","INCLINATION":"53.0552","SITE":"AFETR","BSTAR":"0.00009357500000","ARG_OF_PERICENTER":"60.4409","EPOCH":"2022-05-11T19:31:16.622112","COUNTRY_CODE":"US","SEMIMAJOR_AXIS":"6925.363","FILE":"3441154","LAUNCH_DATE":"2020-10-18","OBJECT_TYPE":"PAYLOAD","PERIOD":"95.592","TLE_LINE2":"2 46716  53.0552  51.9323 0001738  60.4409 299.6753 15.06395174 86221","OBJECT_ID":"2020-073AY","CENTER_NAME":"EARTH","MEAN_MOTION_DOT":"0.00001112","GP_ID":"203308330","APOAPSIS":"548.432","OBJECT_NAME":"STARLINK-1818","MEAN_MOTION_DDOT":"0.0000000000000","TIME_SYSTEM":"UTC","EPHEMERIS_TYPE":"0","DECAY_DATE":null,"ECCENTRICITY":"0.00017380","REF_FRAME":"TEME","REV_AT_EPOCH":"8622","RCS_SIZE":"LARGE","RA_OF_ASC_NODE":"51.9323","MEAN_ELEMENT_THEORY":"SGP4","PERIAPSIS":"546.025","CLASSIFICATION_TYPE":"U","NORAD_CAT_ID":"46716","MEAN_MOTION":"15.06395174","MEAN_ANOMALY":"299.6753"},{"NORAD_CAT_ID":"46717","CLASSIFICATION_TYPE":"U","MEAN_MOTION":"15.06404993","MEAN_ANOMALY":"292.4303","MEAN_ELEMENT_THEORY":"SGP4","PERIAPSIS":"546.231","RA_OF_ASC_NODE":"39.8941","REV_AT_EPOCH":"8633","RCS_SIZE":"LARGE","REF_FRAME":"TEME","ECCENTRICITY":"0.00013960","EPHEMERIS_TYPE":"0","DECAY_DATE":null,"TIME_SYSTEM":"UTC","MEAN_MOTION_DDOT":"0.0000000000000","OBJECT_NAME":"STARLINK-1820","APOAPSIS":"548.165","GP_ID":"203275548","CENTER_NAME":"EARTH","TLE_LINE2":"2 46717  53.0569  39.8941 0001396  67.6834 292.4303 15.06404993 86336","OBJECT_ID":"2020-073AZ","MEAN_MOTION_DOT":"-0.00000161","PERIOD":"95.592","OBJECT_TYPE":"PAYLOAD","FILE":"3440740","LAUNCH_DATE":"2020-10-18","COUNTRY_CODE":"US","SEMIMAJOR_AXIS":"6925.333","BSTAR":"0.00000808340000","EPOCH":"2022-05-11T03:40:31.222560","ARG_OF_PERICENTER":"67.6834","SITE":"AFETR","TLE_LINE1":"1 46717U 20073AZ  22131.15313915 -.00000161  00000-0  80834-5 0  9991","INCLINATION":"53.0569","ELEMENT_SET_NO":"999"},{"EPHEMERIS_TYPE":"0","DECAY_DATE":null,"REF_FRAME":"TEME","ECCENTRICITY":"0.00018030","TIME_SYSTEM":"UTC","MEAN_MOTION_DDOT":"0.0000000000000","CLASSIFICATION_TYPE":"U","NORAD_CAT_ID":"46718","MEAN_ANOMALY":"309.9786","MEAN_MOTION":"15.06390571","RA_OF_ASC_NODE":"52.0203","REV_AT_EPOCH":"8622","RCS_SIZE":"LARGE","PERIAPSIS":"545.994","MEAN_ELEMENT_THEORY":"SGP4","BSTAR":"-0.00005641400000","ARG_OF_PERICENTER":"50.1361","EPOCH":"2022-05-11T18:59:26.590272","LAUNCH_DATE":"2020-10-18","FILE":"3441154","COUNTRY_CODE":"US","SEMIMAJOR_AXIS":"6925.377","ELEMENT_SET_NO":"999","SITE":"AFETR","TLE_LINE1":"1 46718U 20073BA  22131.79127998 -.00001122  00000-0 -56414-4 0  9991","INCLINATION":"53.0548","APOAPSIS":"548.491","GP_ID":"203309330","OBJECT_NAME":"STARLINK-1821","PERIOD":"95.593","OBJECT_TYPE":"PAYLOAD","CENTER_NAME":"EARTH","TLE_LINE2":"2 46718  53.0548  52.0203 0001803  50.1361 309.9786 15.06390571 86220","OBJECT_ID":"2020-073BA","MEAN_MOTION_DOT":"-0.00001122"}];
